{"type":"FeatureCollection","features":[{"type":"Feature","properties":{"name":"Mar del Plata","fill":"#38bdf8","source":"Проект — упрощённая зона","description":"Главный пляжный курорт Pampeana"},"geometry":{"type":"Polygon","coordinates":[[[-57.65,-38.15],[-57.45,-38.15],[-57.45,-37.95],[-57.65,-37.95],[-57.65,-38.15]]]}},{"type":"Feature","properties":{"name":"Pinamar / Valeria","fill":"#38bdf8","source":"Проект — упрощённая зона"},"geometry":{"type":"Polygon","coordinates":[[[-56.99,-37.18],[-56.78,-37.18],[-56.78,-36.96],[-56.99,-36.96],[-56.99,-37.18]]]}},{"type":"Feature","properties":{"name":"Cariló / Ostende","fill":"#38bdf8","source":"Проект — упрощённая зона"},"geometry":{"type":"Polygon","coordinates":[[[-56.92,-37.2],[-56.72,-37.2],[-56.72,-37.05],[-56.92,-37.05],[-56.92,-37.2]]]}},{"type":"Feature","properties":{"name":"Villa Gesell","fill":"#38bdf8","source":"Проект — упрощённая зона"},"geometry":{"type":"Polygon","coordinates":[[[-57.08,-37.32],[-56.92,-37.32],[-56.92,-37.18],[-57.08,-37.18],[-57.08,-37.32]]]}},{"type":"Feature","properties":{"name":"Necochea","fill":"#38bdf8","source":"Проект — упрощённая зона"},"geometry":{"type":"Polygon","coordinates":[[[-58.82,-38.65],[-58.68,-38.65],[-58.68,-38.48],[-58.82,-38.48],[-58.82,-38.65]]]}},{"type":"Feature","properties":{"name":"Miramar","fill":"#38bdf8","source":"Проект — упрощённая зона"},"geometry":{"type":"Polygon","coordinates":[[[-57.88,-38.32],[-57.72,-38.32],[-57.72,-38.18],[-57.88,-38.18],[-57.88,-38.32]]]}}]}