{"type":"FeatureCollection","features":[{"type":"Feature","properties":{"name":"Nahuel Huapi","fill":"#86efac","source":"Проект — упрощённая зона","description":"Reserva de Biosfera Nahuel Huapi"},"geometry":{"type":"Polygon","coordinates":[[[-71.8,-41.8],[-71,-41.8],[-71,-40.5],[-71.8,-40.5],[-71.8,-41.8]]]}},{"type":"Feature","properties":{"name":"Valdés","fill":"#86efac","source":"Проект — упрощённая зона","description":"Península Valdés — biosphere reserve"},"geometry":{"type":"Polygon","coordinates":[[[-64.5,-42.8],[-63,-42.8],[-63,-41.8],[-64.5,-41.8],[-64.5,-42.8]]]}},{"type":"Feature","properties":{"name":"Yungas","fill":"#86efac","source":"Проект — упрощённая зона","description":"Yungas de San Bernardo"},"geometry":{"type":"Polygon","coordinates":[[[-65.8,-26.5],[-64.5,-26.5],[-64.5,-24.5],[-65.8,-24.5],[-65.8,-26.5]]]}},{"type":"Feature","properties":{"name":"Bosques Templados Andinos","fill":"#86efac","source":"Проект — упрощённая зона","description":"Bosques Templados Lluviosos de los Andes Australes"},"geometry":{"type":"Polygon","coordinates":[[[-71.8,-42.5],[-70.5,-42.5],[-70.5,-40],[-71.8,-40],[-71.8,-42.5]]]}}]}