{"type":"FeatureCollection","features":[{"type":"Feature","properties":{"name":"Пампа","fill":"#fef3c7","source":"Проект — упрощённая зона","description":"Умеренный климат Pampeana"},"geometry":{"type":"Polygon","coordinates":[[[-64.5,-41],[-56.5,-41],[-56.5,-33.5],[-64.5,-33.5],[-64.5,-41]]]}},{"type":"Feature","properties":{"name":"Патагония","fill":"#dbeafe","source":"Проект — упрощённая зона","description":"Прохладная и ветреная Patagonia"},"geometry":{"type":"Polygon","coordinates":[[[-73.5,-55.5],[-63.5,-55.5],[-63.5,-40],[-73.5,-40],[-73.5,-55.5]]]}},{"type":"Feature","properties":{"name":"Северо-Запад","fill":"#fed7aa","source":"Проект — упрощённая зона","description":"Субтропики и высокогорье NOA"},"geometry":{"type":"Polygon","coordinates":[[[-68.5,-29.5],[-64,-29.5],[-64,-21.5],[-68.5,-21.5],[-68.5,-29.5]]]}},{"type":"Feature","properties":{"name":"Куйо","fill":"#fecaca","source":"Проект — упрощённая зона","description":"Засушливый континентальный Cuyo"},"geometry":{"type":"Polygon","coordinates":[[[-70.5,-37],[-66,-37],[-66,-31.5],[-70.5,-31.5],[-70.5,-37]]]}},{"type":"Feature","properties":{"name":"Mesopotamia","fill":"#bbf7d0","source":"Проект — упрощённая зона","description":"Субтропический влажный Litoral"},"geometry":{"type":"Polygon","coordinates":[[[-60.5,-34],[-53.5,-34],[-53.5,-25.5],[-60.5,-25.5],[-60.5,-34]]]}},{"type":"Feature","properties":{"name":"Южная Атлантика","fill":"#bae6fd","source":"Проект — упрощённая зона","description":"Прохладное атлантическое побережье"},"geometry":{"type":"Polygon","coordinates":[[[-64,-47],[-56,-47],[-56,-38],[-64,-38],[-64,-47]]]}}]}