{"type":"FeatureCollection","features":[{"type":"Feature","properties":{"name":"Cerro Catedral (Bariloche)","source":"Координаты курортов / официальные данные","region":"Río Negro","description":"Крупнейший курорт Patagonia — 120+ км трасс"},"geometry":{"type":"Point","coordinates":[-71.484,-41.175]}},{"type":"Feature","properties":{"name":"Las Leñas","source":"Координаты курортов / официальные данные","region":"Mendoza","description":"Высокогорный курорт в Андах, снег до октября"},"geometry":{"type":"Point","coordinates":[-70.073,-35.147]}},{"type":"Feature","properties":{"name":"Chapelco","source":"Координаты курортов / официальные данные","region":"Neuquén","description":"San Martín de los Andes — семейный курорт"},"geometry":{"type":"Point","coordinates":[-71.301,-40.165]}},{"type":"Feature","properties":{"name":"Caviahue","source":"Координаты курортов / официальные данные","region":"Neuquén","description":"Copahue — вулкан и термальные источники рядом"},"geometry":{"type":"Point","coordinates":[-71.045,-37.851]}},{"type":"Feature","properties":{"name":"La Hoya (Esquel)","source":"Координаты курортов / официальные данные","region":"Chubut","description":"Компактный курорт у Esquel"},"geometry":{"type":"Point","coordinates":[-71.548,-42.882]}},{"type":"Feature","properties":{"name":"Cerro Castor (Ushuaia)","source":"Координаты курортов / официальные данные","region":"Tierra del Fuego","description":"Самый южный горнолыжный центр мира"},"geometry":{"type":"Point","coordinates":[-68.018,-54.721]}},{"type":"Feature","properties":{"name":"Cerro Bayo (Villa La Angostura)","source":"Координаты курортов / официальные данные","region":"Neuquén","description":"Вид на Nahuel Huapi, рядом с Bariloche"},"geometry":{"type":"Point","coordinates":[-71.327,-40.761]}},{"type":"Feature","properties":{"name":"Los Penitentes (Mendoza)","source":"Координаты курортов / официальные данные","region":"Mendoza","description":"Курорт на RN 7 у границы с Чили"},"geometry":{"type":"Point","coordinates":[-69.913,-32.821]}},{"type":"Feature","properties":{"name":"Batea Mahuida","source":"Координаты курортов / официальные данные","region":"Neuquén","description":"Небольшой центр у Villa Pehuenia"},"geometry":{"type":"Point","coordinates":[-70.989,-39.015]}}]}