{"type":"FeatureCollection","features":[{"type":"Feature","properties":{"name":"Ruinas Jesuíticas de Santa María la Mayor","category":"UNESCO World Heritage","source":"OpenStreetMap heritage=1"},"geometry":{"type":"Point","coordinates":[-55.3448707,-27.8877085]}},{"type":"Feature","properties":{"name":"Cueva de las Manos","category":"UNESCO World Heritage","source":"OpenStreetMap heritage=1"},"geometry":{"type":"Point","coordinates":[-70.6559679,-47.1552731]}},{"type":"Feature","properties":{"name":"Los Graneros de la Poma","category":"UNESCO World Heritage","source":"OpenStreetMap heritage=1"},"geometry":{"type":"Point","coordinates":[-66.1726612,-24.8093802]}},{"type":"Feature","properties":{"name":"Ruinas Inca (Tambo de Tambillos, sector I)","category":"UNESCO World Heritage","source":"OpenStreetMap heritage=1"},"geometry":{"type":"Point","coordinates":[-69.391274,-32.3841318]}},{"type":"Feature","properties":{"name":"Ruinas Inca (Tambillitos)","category":"UNESCO World Heritage","source":"OpenStreetMap heritage=1"},"geometry":{"type":"Point","coordinates":[-69.5833117,-32.7505455]}},{"type":"Feature","properties":{"name":"Ruinas Inca (Tambo de Ranchillos)","category":"UNESCO World Heritage","source":"OpenStreetMap heritage=1"},"geometry":{"type":"Point","coordinates":[-69.468558,-32.6061653]}},{"type":"Feature","properties":{"name":"Ruinas Inca (Tambo de Tambillos, sector II)","category":"UNESCO World Heritage","source":"OpenStreetMap heritage=1"},"geometry":{"type":"Point","coordinates":[-69.3904287,-32.3827226]}},{"type":"Feature","properties":{"name":"Ruinas Inca (Tambo de Tambillos, sector III)","category":"UNESCO World Heritage","source":"OpenStreetMap heritage=1"},"geometry":{"type":"Point","coordinates":[-69.3886504,-32.3848257]}},{"type":"Feature","properties":{"name":"Huellas de un campamento Inca (Cienaga Yalguaraz)","category":"UNESCO World Heritage","source":"OpenStreetMap heritage=1"},"geometry":{"type":"Point","coordinates":[-69.3662525,-32.0989084]}},{"type":"Feature","properties":{"name":"Pucará de Tilcara","category":"UNESCO World Heritage","source":"OpenStreetMap heritage=1"},"geometry":{"type":"Point","coordinates":[-65.4027019,-23.586414]}},{"type":"Feature","properties":{"name":"Ruinas Jesuíticas de Santa Ana","category":"UNESCO World Heritage","source":"OpenStreetMap heritage=1"},"geometry":{"type":"Point","coordinates":[-55.5804514,-27.392117]}},{"type":"Feature","properties":{"name":"Ruinas Jesuíticas de Nuestra Señora de Loreto","category":"UNESCO World Heritage","source":"OpenStreetMap heritage=1"},"geometry":{"type":"Point","coordinates":[-55.5171146,-27.3318502]}},{"type":"Feature","properties":{"name":"Tastil","category":"UNESCO World Heritage","source":"OpenStreetMap heritage=1"},"geometry":{"type":"Point","coordinates":[-65.9582671,-24.4525159]}},{"type":"Feature","properties":{"name":"Iglesia de la Compañía de Jesús","category":"UNESCO World Heritage","source":"OpenStreetMap heritage=1"},"geometry":{"type":"Point","coordinates":[-64.1867716,-31.4178898]}},{"type":"Feature","properties":{"name":"Capilla Doméstica","category":"UNESCO World Heritage","source":"OpenStreetMap heritage=1"},"geometry":{"type":"Point","coordinates":[-64.1873795,-31.4177637]}},{"type":"Feature","properties":{"name":"Estancia Jesuítica Jesús Maria","category":"UNESCO World Heritage","source":"OpenStreetMap heritage=1"},"geometry":{"type":"Point","coordinates":[-64.0965563,-30.9700161]}},{"type":"Feature","properties":{"name":"Estancia Jesuitica Colonia Caroya","category":"UNESCO World Heritage","source":"OpenStreetMap heritage=1"},"geometry":{"type":"Point","coordinates":[-64.1061391,-30.9880971]}},{"type":"Feature","properties":{"name":"Ruinas Jesuíticas de San Ignacio Miní","category":"UNESCO World Heritage","source":"OpenStreetMap heritage=1"},"geometry":{"type":"Point","coordinates":[-55.5314687,-27.2547369]}},{"type":"Feature","properties":{"name":"Ruinas Jesuíticas de Santa María la Mayor","category":"UNESCO World Heritage","source":"OpenStreetMap heritage=1"},"geometry":{"type":"Point","coordinates":[-55.3415987,-27.8882033]}},{"type":"Feature","properties":{"name":"Camino del Inca sección 5","category":"UNESCO World Heritage","source":"OpenStreetMap heritage=1"},"geometry":{"type":"Point","coordinates":[-66.1599619,-24.8379576]}},{"type":"Feature","properties":{"name":"Camino del Inca","category":"UNESCO World Heritage","source":"OpenStreetMap heritage=1"},"geometry":{"type":"Point","coordinates":[-69.3791458,-32.269583]}},{"type":"Feature","properties":{"name":"Camino del Inca","category":"UNESCO World Heritage","source":"OpenStreetMap heritage=1"},"geometry":{"type":"Point","coordinates":[-69.3640712,-32.0954232]}},{"type":"Feature","properties":{"name":"Camino del Inca","category":"UNESCO World Heritage","source":"OpenStreetMap heritage=1"},"geometry":{"type":"Point","coordinates":[-69.361005,-32.0827982]}},{"type":"Feature","properties":{"name":"Camino del Inca","category":"UNESCO World Heritage","source":"OpenStreetMap heritage=1"},"geometry":{"type":"Point","coordinates":[-69.255589,-29.9925394]}},{"type":"Feature","properties":{"name":"Camino del Inca","category":"UNESCO World Heritage","source":"OpenStreetMap heritage=1"},"geometry":{"type":"Point","coordinates":[-67.651087,-28.8279612]}},{"type":"Feature","properties":{"name":"Camino del Inca","category":"UNESCO World Heritage","source":"OpenStreetMap heritage=1"},"geometry":{"type":"Point","coordinates":[-67.6525394,-28.8274865]}},{"type":"Feature","properties":{"name":"Camino del Inca","category":"UNESCO World Heritage","source":"OpenStreetMap heritage=1"},"geometry":{"type":"Point","coordinates":[-67.6545792,-28.826959]}},{"type":"Feature","properties":{"name":"Camino del Inca","category":"UNESCO World Heritage","source":"OpenStreetMap heritage=1"},"geometry":{"type":"Point","coordinates":[-67.6587354,-28.8253194]}},{"type":"Feature","properties":{"name":"Camino del Inca","category":"UNESCO World Heritage","source":"OpenStreetMap heritage=1"},"geometry":{"type":"Point","coordinates":[-67.6615195,-28.8242279]}},{"type":"Feature","properties":{"name":"Camino del Inca","category":"UNESCO World Heritage","source":"OpenStreetMap heritage=1"},"geometry":{"type":"Point","coordinates":[-67.6623496,-28.8236339]}},{"type":"Feature","properties":{"name":"Camino del Inca","category":"UNESCO World Heritage","source":"OpenStreetMap heritage=1"},"geometry":{"type":"Point","coordinates":[-67.6773502,-28.8249652]}},{"type":"Feature","properties":{"name":"Camino del Inca","category":"UNESCO World Heritage","source":"OpenStreetMap heritage=1"},"geometry":{"type":"Point","coordinates":[-67.6961464,-28.8259383]}},{"type":"Feature","properties":{"name":"Camino del Inca","category":"UNESCO World Heritage","source":"OpenStreetMap heritage=1"},"geometry":{"type":"Point","coordinates":[-67.710526,-28.8219492]}},{"type":"Feature","properties":{"name":"Camino del Inca","category":"UNESCO World Heritage","source":"OpenStreetMap heritage=1"},"geometry":{"type":"Point","coordinates":[-67.7215086,-28.8241996]}},{"type":"Feature","properties":{"name":"Chilitanca","category":"UNESCO World Heritage","source":"OpenStreetMap heritage=1"},"geometry":{"type":"Point","coordinates":[-67.7240471,-28.8141557]}},{"type":"Feature","properties":{"name":"Camino del Inca","category":"UNESCO World Heritage","source":"OpenStreetMap heritage=1"},"geometry":{"type":"Point","coordinates":[-67.7312146,-28.8266505]}},{"type":"Feature","properties":{"name":"Camino del Inca","category":"UNESCO World Heritage","source":"OpenStreetMap heritage=1"},"geometry":{"type":"Point","coordinates":[-67.7392019,-28.828029]}},{"type":"Feature","properties":{"name":"Camino del Inca","category":"UNESCO World Heritage","source":"OpenStreetMap heritage=1"},"geometry":{"type":"Point","coordinates":[-67.7525888,-28.8306466]}},{"type":"Feature","properties":{"name":"Camino del Inca","category":"UNESCO World Heritage","source":"OpenStreetMap heritage=1"},"geometry":{"type":"Point","coordinates":[-67.7646639,-28.8302756]}},{"type":"Feature","properties":{"name":"Camino del Inca","category":"UNESCO World Heritage","source":"OpenStreetMap heritage=1"},"geometry":{"type":"Point","coordinates":[-67.7702215,-28.8318669]}},{"type":"Feature","properties":{"name":"Camino del Inca","category":"UNESCO World Heritage","source":"OpenStreetMap heritage=1"},"geometry":{"type":"Point","coordinates":[-67.7767851,-28.8335626]}},{"type":"Feature","properties":{"name":"Camino del Inca","category":"UNESCO World Heritage","source":"OpenStreetMap heritage=1"},"geometry":{"type":"Point","coordinates":[-67.7801687,-28.8312904]}},{"type":"Feature","properties":{"name":"Camino del Inca","category":"UNESCO World Heritage","source":"OpenStreetMap heritage=1"},"geometry":{"type":"Point","coordinates":[-67.7864919,-28.8286341]}},{"type":"Feature","properties":{"name":"UNESCO","category":"UNESCO World Heritage","source":"OpenStreetMap heritage=1"},"geometry":{"type":"Point","coordinates":[-67.7819805,-28.8297561]}},{"type":"Feature","properties":{"name":"Del Bajo","category":"UNESCO World Heritage","source":"OpenStreetMap heritage=1"},"geometry":{"type":"Point","coordinates":[-66.0087405,-27.7024208]}},{"type":"Feature","properties":{"name":"Camino del Inca","category":"UNESCO World Heritage","source":"OpenStreetMap heritage=1"},"geometry":{"type":"Point","coordinates":[-66.0037036,-27.7041734]}},{"type":"Feature","properties":{"name":"Pucará del Aconquija 2","category":"UNESCO World Heritage","source":"OpenStreetMap heritage=1"},"geometry":{"type":"Point","coordinates":[-66.001166,-27.7010779]}},{"type":"Feature","properties":{"name":"Pucará del Aconquija","category":"UNESCO World Heritage","source":"OpenStreetMap heritage=1"},"geometry":{"type":"Point","coordinates":[-65.9982437,-27.7082785]}},{"type":"Feature","properties":{"name":"Potrero de Payogasta","category":"UNESCO World Heritage","source":"OpenStreetMap heritage=1"},"geometry":{"type":"Point","coordinates":[-66.044291,-24.827553]}},{"type":"Feature","properties":{"name":"Camino del Inca sección 5","category":"UNESCO World Heritage","source":"OpenStreetMap heritage=1"},"geometry":{"type":"Point","coordinates":[-66.1374289,-24.8345784]}},{"type":"Feature","properties":{"name":"Camino del Inca sección 5","category":"UNESCO World Heritage","source":"OpenStreetMap heritage=1"},"geometry":{"type":"Point","coordinates":[-66.1487599,-24.8355337]}},{"type":"Feature","properties":{"name":"Abra de Ingañan","category":"UNESCO World Heritage","source":"OpenStreetMap heritage=1"},"geometry":{"type":"Point","coordinates":[-66.0144906,-24.5818408]}},{"type":"Feature","properties":{"name":"Abra de la Cruz","category":"UNESCO World Heritage","source":"OpenStreetMap heritage=1"},"geometry":{"type":"Point","coordinates":[-66.0028095,-24.5730292]}},{"type":"Feature","properties":{"name":"Abra de Chaupiyaco","category":"UNESCO World Heritage","source":"OpenStreetMap heritage=1"},"geometry":{"type":"Point","coordinates":[-65.9911998,-24.5307398]}},{"type":"Feature","properties":{"name":"Camino del Inca","category":"UNESCO World Heritage","source":"OpenStreetMap heritage=1"},"geometry":{"type":"Point","coordinates":[-66.0030047,-24.5566913]}},{"type":"Feature","properties":{"name":"Camino del Inca","category":"UNESCO World Heritage","source":"OpenStreetMap heritage=1"},"geometry":{"type":"Point","coordinates":[-66.0287973,-24.6055919]}},{"type":"Feature","properties":{"name":"Las Capillas","category":"UNESCO World Heritage","source":"OpenStreetMap heritage=1"},"geometry":{"type":"Point","coordinates":[-66.0307754,-24.6291773]}},{"type":"Feature","properties":{"name":"Qhapaq Ñan (camino del Inca) - Sección Quebrada Grande - Las Escaleras","category":"UNESCO World Heritage","source":"OpenStreetMap heritage=1"},"geometry":{"type":"Point","coordinates":[-64.9739572,-23.3713186]}},{"type":"Feature","properties":{"name":"Casa Curutchet","category":"UNESCO World Heritage","source":"OpenStreetMap heritage=1"},"geometry":{"type":"Point","coordinates":[-57.9417923,-34.9113667]}},{"type":"Feature","properties":{"name":"Patrimonio Mundial Misiones jesuíticas Guaraníes","category":"UNESCO World Heritage","source":"OpenStreetMap heritage=1"},"geometry":{"type":"Point","coordinates":[-55.0686826,-27.9014583]}},{"type":"Feature","properties":{"name":"Parque Nacional Los Alerces","category":"UNESCO World Heritage","source":"OpenStreetMap heritage=1"},"geometry":{"type":"Point","coordinates":[-71.8865906,-42.8421452]}},{"type":"Feature","properties":{"name":"Misión de San Ignacio Miní","category":"UNESCO World Heritage","source":"OpenStreetMap heritage=1"},"geometry":{"type":"Point","coordinates":[-55.5314687,-27.2547369]}},{"type":"Feature","properties":{"name":"Misión de Nuestra Señora de Loreto","category":"UNESCO World Heritage","source":"OpenStreetMap heritage=1"},"geometry":{"type":"Point","coordinates":[-55.5171146,-27.3318502]}},{"type":"Feature","properties":{"name":"Misión de Nuestra Señora de Santa Ana","category":"UNESCO World Heritage","source":"OpenStreetMap heritage=1"},"geometry":{"type":"Point","coordinates":[-55.5804514,-27.392117]}},{"type":"Feature","properties":{"name":"Misión de Santa María la Mayor","category":"UNESCO World Heritage","source":"OpenStreetMap heritage=1"},"geometry":{"type":"Point","coordinates":[-55.3415987,-27.8882033]}},{"type":"Feature","properties":{"name":"Parques Naturales de Ischigualasto / Talampaya","category":"UNESCO World Heritage","source":"OpenStreetMap heritage=1"},"geometry":{"type":"Point","coordinates":[-67.972667,-29.9106029]}},{"type":"Feature","properties":{"name":"Patrimonio Mundial Parque Nacional del Iguazú","category":"UNESCO World Heritage","source":"OpenStreetMap heritage=1"},"geometry":{"type":"Point","coordinates":[-54.3594125,-25.6479303]}},{"type":"Feature","properties":{"name":"Parque y Reserva Nacional Los Alerces","category":"UNESCO World Heritage","source":"OpenStreetMap heritage=1"},"geometry":{"type":"Point","coordinates":[-71.872364,-42.8690118]}},{"type":"Feature","properties":{"name":"Quebrada de Humahuaca","category":"UNESCO World Heritage","source":"OpenStreetMap heritage=1"},"geometry":{"type":"Point","coordinates":[-65.3927846,-23.3190716]}},{"type":"Feature","properties":{"name":"Sitio arqueológico La Huerta","category":"UNESCO World Heritage","source":"OpenStreetMap heritage=1"},"geometry":{"type":"Point","coordinates":[-65.3233057,-23.4573151]}},{"type":"Feature","properties":{"name":"Antiguo Rectorado - Universidad Nacional de Córdoba","category":"UNESCO World Heritage","source":"OpenStreetMap heritage=1"},"geometry":{"type":"Point","coordinates":[-64.1868813,-31.4182336]}},{"type":"Feature","properties":{"name":"Colegio Nacional de Monserrat","category":"UNESCO World Heritage","source":"OpenStreetMap heritage=1"},"geometry":{"type":"Point","coordinates":[-64.1870635,-31.4186488]}},{"type":"Feature","properties":{"name":"Hornilla jesuítica","category":"UNESCO World Heritage","source":"OpenStreetMap heritage=1"},"geometry":{"type":"Point","coordinates":[-64.466946,-31.6498344]}},{"type":"Feature","properties":{"name":"Estancia Jesuitica Alta Gracia","category":"UNESCO World Heritage","source":"OpenStreetMap heritage=1"},"geometry":{"type":"Point","coordinates":[-64.4348939,-31.6576743]}}]}