{"type":"FeatureCollection","features":[{"type":"Feature","properties":{"ISO3166-2":"AR-U","name":"Chubut","source":"geoBoundaries ADM1 (OSM relation fix)"},"geometry":{"type":"Polygon","coordinates":[[[-71.79506233106167,-42.00264714594897],[-71.7759322465759,-42.02998541379577],[-71.74815479930453,-42.110255736712816],[-71.79279712588664,-42.148514068369536],[-72.02493722267462,-42.16175195309012],[-72.07156365244055,-42.19409957063863],[-72.1271185469833,-42.25874515956144],[-72.14199932221089,-42.31598931185721],[-72.12414239175791,-42.363653033160915],[-72.09338878926116,-42.425195706516604],[-72.06957954835741,-42.47277659216593],[-72.06362723880596,-42.51885895637571],[-72.09140468607734,-42.56125396619751],[-72.14596752947784,-42.612382019914264],[-72.14100727106864,-42.68899546646759],[-72.11422187493952,-42.73856144185703],[-72.08049211721737,-42.80774173449339],[-72.09239673811891,-42.88702180940891],[-72.13406290857631,-42.939334490594206],[-72.14299137425246,-42.98942580585623],[-72.12060820810228,-43.047179764034865],[-72.08340626958363,-43.10379293489598],[-72.03690384643534,-43.13207990566309],[-71.95319948386907,-43.14904581211448],[-71.84159366831312,-43.15470006745409],[-71.72843777138598,-43.19991528106533],[-71.70828672165482,-43.25751611797443],[-71.71913728675634,-43.3037832011338],[-71.77184003359065,-43.34212433876718],[-71.8369434259983,-43.36804726976567],[-71.87879560683177,-43.39621180772872],[-71.89894665746226,-43.43674575601176],[-71.89894665746226,-43.47950215300193],[-71.86949512220207,-43.52335227938414],[-71.81524229489594,-43.56155460755906],[-71.72688769091417,-43.61881270923908],[-71.66178429850652,-43.67041054720892],[-71.66333437897839,-43.702916840239936],[-71.72843777138598,-43.73204543704725],[-71.76098946848913,-43.78242685201758],[-71.75168898385948,-43.82158306860367],[-71.69898623702517,-43.86183126000458],[-71.66953470266435,-43.89088251151867],[-71.62148219814492,-43.95229040977455],[-71.62148219814492,-44.005830960530375],[-71.66488446034953,-44.034811932724494],[-71.74083841785864,-44.10052389905866],[-71.79664132563664,-44.15170634467205],[-71.79354116469295,-44.22284292895796],[-71.78889092237813,-44.30055026498269],[-71.81989253721076,-44.38147850492902],[-71.77184003359065,-44.42356132319645],[-71.18367738460358,-44.45547976268085],[-71.13506685165385,-44.4816743761715],[-71.0963768355225,-44.52412714045511],[-71.08645631780479,-44.55594642608668],[-71.11720992030155,-44.59128079197495],[-71.15986814369984,-44.611764887639424],[-71.1856614877874,-44.69574469006534],[-71.22931176232794,-44.80142832155974],[-71.27891434731924,-44.81902347285495],[-71.33149308663661,-44.81761605813455],[-71.37613541321872,-44.80142832155974],[-71.4386346702538,-44.781011220891116],[-71.49716572002194,-44.77608187307993],[-71.61819602682516,-44.80354002325345],[-71.71938529999159,-44.799316542524366],[-71.7808925049851,-44.80494778151484],[-71.86819305406613,-44.81620860923988],[-72.0279133779,-44.82535641416712],[-72.08346827244276,-44.84224085463171],[-72.09239673811891,-44.88583609695826],[-72.0378338947184,-44.93080300865188],[-71.97930284405095,-44.97222571644363],[-71.91581153587362,-45.001694852335504],[-71.65390988773112,-45.01081318108339],[-71.58149011477695,-45.03465425618896],[-71.53684778819485,-45.06969662390003],[-71.47038032479213,-45.15231148388784],[-71.3989526020809,-45.19986573431612],[-71.32752488026898,-45.245284880892484],[-71.29081896732146,-45.28996981915179],[-71.2997474329976,-45.340895632427475],[-71.36224668913337,-45.3757499186238],[-71.43466646298685,-45.41545761657568],[-71.47930878956896,-45.44817806336687],[-71.50411008251427,-45.5149523736531],[-71.55867292501546,-45.5531728303618],[-71.60529935478138,-45.56914822890758],[-71.69756016317098,-45.56914822890758],[-71.75212300567216,-45.596226564804056],[-71.79378917702888,-45.65103753295574],[-71.8185904699742,-45.76326709669911],[-71.81759841793263,-45.828284654213405],[-71.80966200429805,-45.86352839451973],[-71.78783686747744,-45.88424957575728],[-71.7263296615846,-45.90910479564974],[-71.68069528386025,-45.94222778258603],[-71.65390988773112,-45.98153564285559],[-71.65183130177314,-46.00367660089438],[-71.44458698070457,-46.00428007926223],[-71.20451047028195,-45.99049668827149],[-70.67641732599878,-45.9912559409089],[-70.16295306942857,-45.989573186153564],[-69.68097482862538,-45.98789038013689],[-69.08516253102596,-45.98620752285888],[-68.56685427140746,-45.98452461431947],[-68.11394004529683,-45.97610930540009],[-67.75063986343889,-45.96769271674543],[-67.5354692757864,-45.969039456905364],[-67.51996846837005,-45.932396459628876],[-67.49206701448111,-45.890334954394575],[-67.45176491411945,-45.84824157269037],[-67.40216232912815,-45.82124186811768],[-67.3680605524525,-45.78882493172517],[-67.34170917903532,-45.75098133052393],[-67.33085861393386,-45.69146093657292],[-67.31690788698933,-45.6394640469282],[-67.27815586709954,-45.60043468511259],[-67.23320352532238,-45.56029286282529],[-67.17895069801625,-45.521208407641836],[-67.14019867812647,-45.4799231180574],[-67.09369625497817,-45.42773000713407],[-67.04874391320101,-45.38202141015989],[-67.00689173146822,-45.33845502797709],[-66.95883922784805,-45.28285923856299],[-66.89838607775522,-45.247947761779756],[-66.81313163471714,-45.217382607721106],[-66.71392646563385,-45.206462497146504],[-66.59767040776308,-45.20755460236296],[-66.53721725677093,-45.19772489908479],[-66.50931580288199,-45.16385403233767],[-66.50001531825228,-45.1168385018953],[-66.47676410667816,-45.08620289674627],[-66.41166071427051,-45.05664585122503],[-66.33880691770503,-45.03255103060553],[-66.26750320251074,-45.000774171390844],[-66.17604843668596,-44.95910883550431],[-66.07994342854636,-44.949236294819116],[-65.99468898550822,-44.96459284648262],[-65.88928349363829,-44.973366173709906],[-65.7916284041275,-45.00625419837252],[-65.70482388061754,-45.02816906415097],[-65.63042000358024,-45.02269113438831],[-65.6025185496913,-44.97994528824444],[-65.57926733811712,-44.920706081720255],[-65.58236749996013,-44.85920824946112],[-65.62886992310843,-44.818539678063644],[-65.66762194209889,-44.80204424204811],[-65.7172245270902,-44.775641732280064],[-65.72807509309104,-44.7393185609028],[-65.71412436614656,-44.69856542805201],[-65.67847250809973,-44.669910919653205],[-65.63352016542325,-44.640139313878194],[-65.58081741948826,-44.608145379005975],[-65.5188141880243,-44.57723795196989],[-65.43045958404252,-44.52753086665615],[-65.37465667626458,-44.50321417339535],[-65.35295554516222,-44.47888733308389],[-65.33900481821775,-44.4412713484939],[-65.30800320248579,-44.39920127541848],[-65.28630207228275,-44.379262781352224],[-65.25220029470779,-44.33160443979301],[-65.23979964823513,-44.31053375592808],[-65.26460094118045,-44.28501701452353],[-65.30955328385693,-44.2605993202024],[-65.31265344480062,-44.23395026489277],[-65.29870271785609,-44.17394574969654],[-65.2739014258101,-44.13947109881212],[-65.24134972960627,-44.086051256859946],[-65.22584892129066,-44.050411204213674],[-65.21964859850397,-44.018093869536415],[-65.23514940592031,-43.99802597022233],[-65.25995069886562,-43.946710493294574],[-65.28010174859679,-43.908753164726704],[-65.32660417174509,-43.83835644819146],[-65.32505409127327,-43.62778942983829],[-65.29095231459758,-43.588506381863965],[-65.24444989054996,-43.550321141707286],[-65.17159609488385,-43.48625039943636],[-65.12354359036436,-43.45025104245161],[-65.0847915713739,-43.393959126512414],[-65.07084084442937,-43.340997004408166],[-65.0351889863826,-43.295886434111594],[-64.99023664370611,-43.25412934039667],[-64.92978349361329,-43.20895430669583],[-64.83367848547368,-43.150176705090814],[-64.76547493122308,-43.129817429930426],[-64.69262113555692,-43.11510929216007],[-64.61511709667661,-43.10039761915476],[-64.54071321963931,-43.077757371905136],[-64.47095958401752,-43.05284343437694],[-64.4012059492951,-43.023386636284215],[-64.36090384893345,-43.000717938082346],[-64.34075279920228,-42.97123612264892],[-64.3733044954061,-42.9542209513358],[-64.41825683808258,-42.94514426929254],[-64.52056216900883,-42.944009590170424],[-64.60271645020396,-42.944009590170424],[-64.6864208118709,-42.92131161094204],[-64.74842404333486,-42.888384681607704],[-64.82592808131585,-42.856576477422436],[-64.89723179740946,-42.816793169868845],[-64.95613486703047,-42.79063590792077],[-64.98403632091942,-42.75877735878805],[-65.0010872097069,-42.728041093421666],[-64.97783599813278,-42.6870357034349],[-64.94218414008594,-42.66994213012515],[-64.90033195925247,-42.65854380235453],[-64.84297897010333,-42.64486305008967],[-64.79182630464021,-42.62547683418853],[-64.73447331639039,-42.592392292370334],[-64.6879708932421,-42.5672819519005],[-64.60736669251878,-42.54444559578758],[-64.50351128022135,-42.53188203802557],[-64.40585619160993,-42.542161500352904],[-64.2989006183688,-42.596956721375534],[-64.25239819522051,-42.635740877639364],[-64.23069706411815,-42.6881751075951],[-64.23999754874785,-42.763329583093764],[-64.20434569070102,-42.81451906410348],[-64.14854278292307,-42.85203111044734],[-64.06948866357095,-42.85998528389371],[-63.97028349448766,-42.85203111044734],[-63.866428082190225,-42.83270956659317],[-63.78117363915209,-42.81110774942306],[-63.7315710550601,-42.76901939402978],[-63.691268954698444,-42.71893112567085],[-63.64631661202196,-42.65398388614739],[-63.61221483534632,-42.55129738026983],[-63.576562977299545,-42.385502095545235],[-63.60136426934554,-42.30989125008108],[-63.62616556229085,-42.226155160332326],[-63.675768147282156,-42.14230785682207],[-63.70521968164297,-42.10206766039414],[-63.762572669892734,-42.081362751489735],[-63.81992565904187,-42.088265138125564],[-63.902079940237,-42.111267672764825],[-64.02763648273742,-42.16529077994551],[-64.10979076393255,-42.19745285116812],[-64.19039496375655,-42.22271157258098],[-64.1717939944972,-42.2376324323908],[-64.10824068346074,-42.258286262500974],[-64.08033922867241,-42.28237384987324],[-64.04313729015377,-42.312183823424675],[-64.04623745199677,-42.35343587406629],[-64.08188931004361,-42.38779191336607],[-64.18729480281286,-42.42098488824195],[-64.35780368798976,-42.42670603965195],[-64.48181015001836,-42.41411881712969],[-64.56086426937048,-42.39466086680551],[-64.571714834472,-42.3603085857726],[-64.54071321963931,-42.32937546600493],[-64.49576087696283,-42.28466742596089],[-64.52521241132371,-42.25369710663614],[-64.6182172576203,-42.223859455549416],[-64.75152420427855,-42.18252249541678],[-64.87708074767835,-42.145755826969776],[-64.9824862404476,-42.09746715328646],[-65.0103876943366,-42.02266214174438],[-65.01487528616548,-41.96929134342071],[-65.7621344811214,-41.97350023894484],[-66.63274274538134,-41.98571147200681],[-67.57562792259051,-41.9905953096258],[-68.71563195215282,-42.00036185981196],[-69.87863318247537,-41.99303708769139],[-70.7295295620396,-41.99303708769139],[-71.53941092167668,-41.99971684535609],[-71.79506233106167,-42.00264714594897]]]}}]}